XRISM                   
1 57800U 23137A   24270.57604200  .00011727  00000+0  84438-3 0  9992
2 57800  31.0030  86.4665 0009054 130.5630 229.5796 15.02974692 57940
